OBJECT_NAME,OBJECT_ID,EPOCH,MEAN_MOTION,ECCENTRICITY,INCLINATION,RA_OF_ASC_NODE,ARG_OF_PERICENTER,MEAN_ANOMALY,EPHEMERIS_TYPE,CLASSIFICATION_TYPE,NORAD_CAT_ID,ELEMENT_SET_NO,REV_AT_EPOCH,BSTAR,MEAN_MOTION_DOT,MEAN_MOTION_DDOT
OSCAR 7 (AO-7),1974-089B,2026-06-06T22:35:06.185184,12.53697893,.00124686,101.9901,171.0806,149.2351,327.1489,0,U,7530,999,35923,.4580919E-5,-.46E-6,0
PHASE 3B (AO-10),1983-058B,2026-06-05T17:10:32.210112,2.05872928,.60147622,25.9038,221.4654,112.5116,319.5552,0,U,14129,999,29525,0,-.155E-5,0
UOSAT 2 (UO-11),1984-021B,2026-06-06T16:24:06.439968,14.90757893,.00066933,97.8052,123.3759,208.6330,151.4521,0,U,14781,999,25556,.13825712E-3,.1303E-4,0
LUSAT (LO-19),1990-005G,2026-06-06T13:51:02.116512,14.34119987,.00106129,98.8853,179.0901,234.2040,125.8157,0,U,20442,999,90087,.63145958E-4,.13E-5,0
EYESAT A (AO-27),1993-061C,2026-06-06T22:20:23.491680,14.30939557,.00093446,98.6881,225.3477,126.4109,233.7936,0,U,22825,999,70553,.56820208E-4,.105E-5,0
ITAMSAT (IO-26),1993-061D,2026-06-06T15:12:30.452256,14.31365981,.0010034,98.6828,224.9671,112.4178,247.8069,0,U,22826,999,70580,.56152037E-4,.104E-5,0
RADIO ROSTO (RS15),1994-085A,2026-06-06T19:52:23.300544,11.27583599,.01556316,64.8186,319.9701,5.7894,354.4784,0,U,23439,999,29473,.16114354E-3,-.37E-6,0
JAS-2 (FO-29),1996-046B,2026-06-06T19:29:45.551328,13.53273649,.03507213,98.5249,8.1055,123.2843,240.2413,0,U,24278,999,47176,.8164322E-5,-.24E-6,0
TECHSAT 1B (GO-32),1998-043D,2026-06-06T14:21:22.435776,14.24426350,.00004642,99.0065,150.0898,193.9791,166.1374,0,U,25397,999,44982,.49896193E-4,.69E-6,0
ISS (ZARYA),1998-067A,2026-06-06T20:52:03.052128,15.49642340,.00069776,51.6338,351.1688,142.0049,218.1433,0,U,25544,999,57015,.17236766E-3,.9276E-4,0
PCSAT (NO-44),2001-043C,2026-06-06T14:42:12.832992,14.31952422,.0006117,67.0513,271.6217,264.1922,95.8483,0,U,26931,999,28893,.90579E-4,.16E-5,0
SAUDISAT 1C (SO-50),2002-058C,2026-06-06T16:52:37.290432,14.83024338,.0075466,64.5504,161.4222,264.4088,94.8408,0,U,27607,999,26290,.15193362E-3,.1144E-4,0
CUTE-1 (CO-55),2003-031E,2026-06-06T11:59:55.616928,14.24329258,.0008851,98.6735,166.1932,210.1158,149.9513,0,U,27844,999,19015,.15775E-3,.321E-5,0
CUBESAT XI-IV (CO-57),2003-031J,2026-06-06T13:16:47.996256,14.23615194,.00084595,98.6767,165.9671,230.3427,129.7005,0,U,27848,999,18986,.13659001E-3,.268E-5,0
MOZHAETS 4 (RS22),2003-042A,2026-06-06T23:11:53.228256,14.73450983,.0010237,98.3470,342.0369,306.2705,160.5208,0,U,27939,999,21404,.2436778E-3,.1529E-4,0
CUBESAT XI-V,2005-043F,2026-06-06T16:00:26.989056,14.72603733,.00130378,98.2975,313.0688,235.8954,124.1016,0,U,28895,999,10020,.26545796E-3,.1638E-4,0
CUTE-1.7+APD II (CO-65),2008-021C,2026-06-06T18:35:18.470976,15.09350971,.00104257,97.8270,138.9776,69.3046,290.9298,0,U,32785,999,98362,.41854542E-3,.6623E-4,0
SEEDS II (CO-66),2008-021J,2026-06-06T13:23:59.906400,15.32385592,.00026017,97.7518,154.9517,35.3933,324.7480,0,U,32791,999,98566,.75009355E-3,.2342E-3,0
YUBILEINY (RS30),2008-025A,2026-06-06T21:03:57.645792,12.43178630,.00192996,82.5045,1.8542,337.0292,22.9923,0,U,32953,999,81841,-.28574548E-3,-.3E-6,0
KKS-1 (KISEKI),2009-002H,2026-06-06T19:10:55.536096,14.83097275,.00071923,98.1193,80.0770,334.4433,25.6423,0,U,33499,999,93465,.18860035E-3,.1481E-4,0
SWISSCUBE,2009-051B,2026-06-05T11:15:38.778912,14.62458715,.00054307,98.4043,64.1532,246.3597,113.7034,0,U,35932,999,88744,.23506342E-3,.1141E-4,0
BEESAT-1,2009-051C,2026-06-06T23:29:05.404992,14.61704086,.00038936,98.3972,65.3456,257.6051,102.4714,0,U,35933,999,88769,.1913E-3,.904E-5,0
ITUPSAT1,2009-051E,2026-06-04T16:47:20.224032,14.60421767,.0006134,98.4056,62.2366,280.9538,79.0971,0,U,35935,999,88691,.20796E-3,.958E-5,0
XIWANG-1 (HOPE-1),2009-072B,2026-06-06T21:47:31.297632,13.16440458,.00067696,100.4028,111.9048,257.5510,102.4846,0,U,36122,999,79165,.82931211E-3,.272E-5,0
O/OREOS (USA 219),2010-062C,2026-06-05T21:04:28.196832,14.93695134,.00123709,71.9702,105.9546,87.8701,272.3886,0,U,37224,999,11495,.28689329E-3,.2979E-4,0
JUGNU,2011-058B,2026-06-06T07:23:16.719360,14.13773989,.00185037,19.9622,14.5210,316.3264,216.4094,0,U,37839,999,75748,.96536503E-4,.452E-5,0
SRMSAT,2011-058D,2026-06-06T06:31:30.735264,14.11573396,.00119474,19.9704,125.5359,84.3565,18.6414,0,U,37841,999,75627,.65061068E-4,.385E-5,0
STRAND-1,2013-009E,2026-06-06T18:02:49.750944,14.37157162,.00074009,98.3920,338.2434,261.0768,98.9581,0,U,39090,999,69556,.11871817E-3,.31E-5,0
ZACUBE-1 (TSHEPISOSAT),2013-066B,2026-06-06T16:12:47.865600,15.01121821,.00399629,97.8101,119.9558,284.7807,74.8990,0,U,39417,999,67915,.38849307E-3,.4996E-4,0
GOMX-1,2013-066Q,2026-06-06T21:41:19.826880,14.69420648,.01301226,97.6491,359.0151,110.2256,251.2997,0,U,39430,999,66840,.32248014E-3,.2123E-4,0
